ONEWEB-0538             
1 56047U 23043B   24084.88084417 -.00000032  00000+0 -11801-3 0  9992
2 56047  87.9127  30.8473 0001572  81.6901 278.4408 13.16594449 51828
ONEWEB-0546             
1 56048U 23043C   24084.86818230  .00000024  00000+0  28570-4 0  9990
2 56048  87.9130  30.8126 0002477  99.0514 261.0897 13.16596079 51816
ONEWEB-0547             
1 56049U 23043D   24084.90667076  .00000069  00000+0  13661-3 0  9999
2 56049  87.9271  46.0441 0001509  90.8690 269.2617 13.21828650 51562
ONEWEB-0548             
1 56050U 23043E   24084.89351787 -.00000057  00000+0 -18385-3 0  9995
2 56050  87.9128  30.8511 0002319  67.6548 292.4828 13.16594247 51814
ONEWEB-0549             
1 56051U 23043F   24084.89878176  .00000083  00000+0  16916-3 0  9997
2 56051  87.9271  46.0449 0001789  81.0027 279.1310 13.21828208 50657
ONEWEB-0550             
1 56052U 23043G   24084.96186425  .00000130  00000+0  28335-3 0  9996
2 56052  87.9267  46.0432 0001971  77.9939 282.1416 13.21828022 51571
ONEWEB-0551             
1 56053U 23043H   24084.88548269 -.00000096  00000+0 -28943-3 0  9994
2 56053  87.8984  61.2809 0001685  80.9481 279.1840 13.15549234 49338
ONEWEB-0552             
1 56054U 23043J   24084.95555026  .00000022  00000+0  21283-4 0  9990
2 56054  87.9268  46.0550 0001839  74.0090 286.1246 13.21829046 51576
